IRIDIUM 126             
1 42809U 17039G   25335.84326749  .00000250  00000+0  82230-4 0  9999
2 42809  86.3968  76.1407 0001781  94.7403 265.3997 14.34216108441666
IRIDIUM 124             
1 42810U 17039H   25335.80618772  .00000426  00000+0  12052-3 0  9996
2 42810  86.4504  12.8792 0002153  99.7292 260.4152 14.43283911446642
IRIDIUM 128             
1 42811U 17039J   25335.83401271  .00000155  00000+0  48456-4 0  9991
2 42811  86.3956 107.6780 0002184 103.7672 256.3767 14.34218018441697
IRIDIUM 121             
1 42812U 17039K   25335.72276381  .00000259  00000+0  85422-4 0  9991
2 42812  86.3970  76.2175 0002177  97.0009 263.1435 14.34217526441527
IRIDIUM 133             
1 42955U 17061A   25335.65641845  .00000256  00000+0  84431-4 0  9993
2 42955  86.3958 107.8652 0002071  96.7210 263.4221 14.34218831426467
IRIDIUM 100             
1 42956U 17061B   25335.44076404  .00000363  00000+0  12254-3 0  9996
2 42956  86.3951 107.8782 0001966  93.0711 267.0710 14.34216572426433
IRIDIUM 122             
1 42957U 17061C   25335.82766825  .00000207  00000+0  66742-4 0  9991
2 42957  86.3958 107.7165 0001912  95.6682 264.4732 14.34217410426494
IRIDIUM 129             
1 42958U 17061D   25335.78326965  .00000325  00000+0  10916-3 0  9996
2 42958  86.3959 107.8000 0002013  83.0337 277.1088 14.34217721426508
